[{"OBJECT_NAME":"STARLINK-3604","OBJECT_ID":"2022-017AZ","EPOCH":"2026-03-09T21:32:47.485248","MEAN_MOTION":15.08834424,"ECCENTRICITY":0.00013283,"INCLINATION":53.2193,"RA_OF_ASC_NODE":328.1913,"ARG_OF_PERICENTER":49.6075,"MEAN_ANOMALY":310.5033,"EPHEMERIS_TYPE":0,"CLASSIFICATION_TYPE":"U","NORAD_CAT_ID":51815,"ELEMENT_SET_NO":999,"REV_AT_EPOCH":22411,"BSTAR":5.7389416e-5,"MEAN_MOTION_DOT":6.25e-6,"MEAN_MOTION_DDOT":0},{"OBJECT_NAME":"NOAA 16 DEB","OBJECT_ID":"2000-055BZ","EPOCH":"2026-03-09T09:57:46.840608","MEAN_MOTION":15.04968987,"ECCENTRICITY":0.00133628,"INCLINATION":98.8453,"RA_OF_ASC_NODE":286.076,"ARG_OF_PERICENTER":194.204,"MEAN_ANOMALY":165.8809,"EPHEMERIS_TYPE":0,"CLASSIFICATION_TYPE":"U","NORAD_CAT_ID":41142,"ELEMENT_SET_NO":999,"REV_AT_EPOCH":53866,"BSTAR":0.0051237154,"MEAN_MOTION_DOT":0.00073426,"MEAN_MOTION_DDOT":0}]
